{
    "links": {
        "self": "http://www.neowsapp.com/rest/v1/neo/3794958?api_key=iIulBulltgU6a56xZRHN4H3l9WmuAYTsLGpBGhQ2"
    },
    "id": "3794958",
    "neo_reference_id": "3794958",
    "name": "(2017 YZ)",
    "designation": "2017 YZ",
    "nasa_jpl_url": "http://ssd.jpl.nasa.gov/sbdb.cgi?sstr=3794958",
    "absolute_magnitude_h": 23.9,
    "estimated_diameter": {
        "kilometers": {
            "estimated_diameter_min": 0.04411182,
            "estimated_diameter_max": 0.0986370281
        },
        "meters": {
            "estimated_diameter_min": 44.1118199997,
            "estimated_diameter_max": 98.6370281305
        },
        "miles": {
            "estimated_diameter_min": 0.0274098057,
            "estimated_diameter_max": 0.0612901888
        },
        "feet": {
            "estimated_diameter_min": 144.7238235278,
            "estimated_diameter_max": 323.6123073718
        }
    },
    "is_potentially_hazardous_asteroid": false,
    "close_approach_data": [
        {
            "close_approach_date": "2017-12-31",
            "close_approach_date_full": "2017-Dec-31 23:14",
            "epoch_date_close_approach": 1514762040000,
            "relative_velocity": {
                "kilometers_per_second": "6.8118501065",
                "kilometers_per_hour": "24522.6603832795",
                "miles_per_hour": "15237.427503155"
            },
            "miss_distance": {
                "astronomical": "0.1445643601",
                "lunar": "56.2355360789",
                "kilometers": "21626520.348872987",
                "miles": "13438096.6119697406"
            },
            "orbiting_body": "Earth"
        }
    ],
    "orbital_data": {
        "orbit_id": "3",
        "orbit_determination_date": "2018-01-23 06:56:46",
        "first_observation_date": "2017-12-20",
        "last_observation_date": "2018-01-23",
        "data_arc_in_days": 34,
        "observations_used": 30,
        "orbit_uncertainty": "8",
        "minimum_orbit_intersection": ".111978",
        "jupiter_tisserand_invariant": "3.425",
        "epoch_osculation": "2458112.5",
        "eccentricity": ".5186731823021694",
        "semi_major_axis": "2.262470188380981",
        "inclination": "3.948886130833529",
        "ascending_node_longitude": "121.6383037309966",
        "orbital_period": "1243.004568876553",
        "perihelion_distance": "1.088987575909629",
        "perihelion_argument": "325.9694616952365",
        "aphelion_distance": "3.435952800852334",
        "perihelion_time": "2458112.326887952180",
        "mean_anomaly": ".050136852893088",
        "mean_motion": ".2896208179873173",
        "equinox": "J2000",
        "orbit_class": {
            "orbit_class_type": "AMO",
            "orbit_class_description": "Near-Earth asteroid orbits similar to that of 1221 Amor",
            "orbit_class_range": "1.017 AU < q (perihelion) < 1.3 AU"
        }
    },
    "is_sentry_object": false
}